QIANFAN-60              
1 62790U 25016F   25273.45632892  .00000063  00000+0  77135-4 0  9991
2 62790  88.9732 110.6637 0014892 189.3455 170.7422 13.52524324 37336
QIANFAN-61              
1 62791U 25016G   25283.26541090  .00000041  00000+0  44008-4 0  9990
2 62791  88.9792 109.7669 0015150 159.9731 200.2018 13.50973830 38671
QIANFAN-62              
1 62792U 25016H   25283.26963030  .00000042  00000+0  46124-4 0  9995
2 62792  88.9738 109.6692 0016518 160.8898 199.2876 13.50967809 38668
QIANFAN-63              
1 62793U 25016J   25283.29422951  .00000066  00000+0  84109-4 0  9992
2 62793  88.9742 109.6139 0016422 166.0552 194.1056 13.50970787 38707
QIANFAN-64              
1 62794U 25016K   25283.26131157  .00000051  00000+0  59559-4 0  9990
2 62794  88.9731 109.6000 0014567 158.4237 201.7531 13.50972397 38696
QIANFAN-65              
1 62795U 25016L   25283.25721608  .00000057  00000+0  69305-4 0  9992
2 62795  88.9725 109.6287 0014346 160.0577 200.1137 13.50971385 38677
QIANFAN-66              
1 62796U 25016M   25283.28612403  .00000049  00000+0  56919-4 0  9996
2 62796  88.9748 109.5834 0015588 156.2096 203.9779 13.50966529 38725
QIANFAN-67              
1 62797U 25016N   25283.29010167  .00000060  00000+0  73838-4 0  9999
2 62797  88.9735 109.6148 0015356 162.8459 197.3214 13.50968150 38698
QIANFAN-68              
1 62798U 25016P   25283.28190799  .00000052  00000+0  62203-4 0  9994
2 62798  88.9741 109.6585 0015464 161.1938 198.9788 13.50970522 38672
QIANFAN-69              
1 62799U 25016Q   25283.29839081  .00000056  00000+0  68599-4 0  9998
2 62799  88.9717 109.5399 0016181 162.4576 197.7137 13.50968066 38717
QIANFAN-70              
1 62800U 25016R   25283.24066280  .00000057  00000+0  68754-4 0  9993
2 62800  88.9738 109.6709 0016036 153.1615 207.0370 13.50973060 38667
QIANFAN-71              
1 62801U 25016S   25283.31070773  .00000043  00000+0  47715-4 0  9993
2 62801  88.9732 109.6471 0015993 165.8246 194.3357 13.50971723 38677
QIANFAN-72              
1 62802U 25016T   25274.29087208  .00000084  00000+0  11481-3 0  9997
2 62802  88.9730 110.6012 0018440 200.3911 159.6505 13.49486897 37447
QIANFAN-73              
1 63159U 25046A   25283.50214922  .00000128  00000+0  17967-3 0  9999
2 63159  88.9803 326.5682 0013112 311.4922  48.5103 13.50968491 38877
QIANFAN-74              
1 63160U 25046B   25283.48568897  .00000138  00000+0  19528-3 0  9997
2 63160  88.9803 326.4582 0002214 101.5273 258.6127 13.50970416 38932
QIANFAN-75              
1 63161U 25046C   25283.54737782  .00000092  00000+0  12413-3 0  9991
2 63161  88.9805 326.6845 0014247 314.3748  45.6235 13.50978014 38812
QIANFAN-76              
1 63162U 25046D   25283.54330884  .00000043  00000+0  47868-4 0  9993
2 63162  88.9800 326.6658 0011823 316.0266  43.9943 13.50971697 38829
QIANFAN-77              
1 63163U 25046E   25283.54111927  .00000355  00000+0  24946-3 0  9996
2 63163  88.9801 325.1923 0012452 278.2705  81.7060 13.96067472 39633
QIANFAN-78              
1 63164U 25046F   25283.51041709  .00000139  00000+0  19648-3 0  9997
2 63164  88.9803 326.5339 0013271 318.1270  41.8865 13.50970781 38896
QIANFAN-79              
1 63165U 25046G   25283.53909369  .00000147  00000+0  20868-3 0  9990
2 63165  88.9807 326.6360 0012909 316.1938  43.8188 13.50969913 38842
QIANFAN-80              
1 63166U 25046H   25283.55566940  .00000166  00000+0  23795-3 0  9990
2 63166  88.9804 326.3428 0012013 321.6620  38.3676 13.50970380 39007
QIANFAN-81              
1 63167U 25046J   25283.53489799  .00000102  00000+0  13935-3 0  9990
2 63167  88.9804 326.4134 0012732 307.8463  52.1536 13.50985224 38957
QIANFAN-82              
1 63168U 25046K   25283.49392808  .00000160  00000+0  22974-3 0  9997
2 63168  88.9804 326.4612 0011079 318.0371  41.9930 13.50967514 38938
QIANFAN-83              
1 63169U 25046L   25283.51695704  .00000179  00000+0  21722-3 0  9992
2 63169  88.9804 326.3592 0012077 304.3868  55.6147 13.61961612 38996
QIANFAN-84              
1 63170U 25046M   25283.52234123  .00000135  00000+0  19044-3 0  9995
2 63170  88.9804 326.5912 0013935 312.4899  47.5074 13.50985591 38869
QIANFAN-85              
1 63171U 25046N   25283.29643789  .00000177  00000+0  25618-3 0  9992
2 63171  88.9804 326.4865 0011402 317.2464  42.7800 13.50970144 38901
QIANFAN-86              
1 63172U 25046P   25283.30467443  .00000174  00000+0  25043-3 0  9995
2 63172  88.9806 326.3463 0009403 323.6563  36.3948 13.50967267 38988
QIANFAN-87              
1 63173U 25046Q   25282.68330257  .00000145  00000+0  20656-3 0  9991
2 63173  88.9804 326.5243 0010016 319.1660  40.8739 13.50979787 38837
QIANFAN-88              
1 63174U 25046R   25283.29232074  .00000161  00000+0  23051-3 0  9998
2 63174  88.9800 326.4145 0010573 326.2352  33.8125 13.50973307 38944
QIANFAN-89              
1 63175U 25046S   25283.25513538  .00000163  00000+0  23404-3 0  9996
2 63175  88.9801 326.6074 0014634 313.6738  46.3199 13.50968401 38836
QIANFAN-90              
1 63176U 25046T   25283.28387743  .00000147  00000+0  20903-3 0  9990
2 63176  88.9802 326.5767 0011532 312.6688  47.3491 13.50970491 38853
